{
    "links": {
        "self": "http://www.neowsapp.com/rest/v1/neo/3682925?api_key=iIulBulltgU6a56xZRHN4H3l9WmuAYTsLGpBGhQ2"
    },
    "id": "3682925",
    "neo_reference_id": "3682925",
    "name": "(2014 QV169)",
    "designation": "2014 QV169",
    "nasa_jpl_url": "http://ssd.jpl.nasa.gov/sbdb.cgi?sstr=3682925",
    "absolute_magnitude_h": 23.6,
    "estimated_diameter": {
        "kilometers": {
            "estimated_diameter_min": 0.0506471459,
            "estimated_diameter_max": 0.1132504611
        },
        "meters": {
            "estimated_diameter_min": 50.6471458835,
            "estimated_diameter_max": 113.2504610618
        },
        "miles": {
            "estimated_diameter_min": 0.0314706677,
            "estimated_diameter_max": 0.0703705522
        },
        "feet": {
            "estimated_diameter_min": 166.1651821003,
            "estimated_diameter_max": 371.5566426699
        }
    },
    "is_potentially_hazardous_asteroid": false,
    "close_approach_data": [
        {
            "close_approach_date": "1996-09-09",
            "close_approach_date_full": "1996-Sep-09 16:54",
            "epoch_date_close_approach": 842288040000,
            "relative_velocity": {
                "kilometers_per_second": "9.9317310125",
                "kilometers_per_hour": "35754.23164488",
                "miles_per_hour": "22216.2891017867"
            },
            "miss_distance": {
                "astronomical": "0.3878955588",
                "lunar": "150.8913723732",
                "kilometers": "58028349.378939756",
                "miles": "36057144.3120743928"
            },
            "orbiting_body": "Earth"
        },
        {
            "close_approach_date": "2005-09-16",
            "close_approach_date_full": "2005-Sep-16 11:35",
            "epoch_date_close_approach": 1126870500000,
            "relative_velocity": {
                "kilometers_per_second": "6.1496328263",
                "kilometers_per_hour": "22138.678174717",
                "miles_per_hour": "13756.1136691735"
            },
            "miss_distance": {
                "astronomical": "0.1921162559",
                "lunar": "74.7332235451",
                "kilometers": "28740182.675014933",
                "miles": "17858321.4128867554"
            },
            "orbiting_body": "Earth"
        },
        {
            "close_approach_date": "2014-09-18",
            "close_approach_date_full": "2014-Sep-18 20:55",
            "epoch_date_close_approach": 1411073700000,
            "relative_velocity": {
                "kilometers_per_second": "5.8869186237",
                "kilometers_per_hour": "21192.9070453002",
                "miles_per_hour": "13168.4482693422"
            },
            "miss_distance": {
                "astronomical": "0.1881445328",
                "lunar": "73.1882232592",
                "kilometers": "28146021.359025136",
                "miles": "17489126.6909174368"
            },
            "orbiting_body": "Earth"
        },
        {
            "close_approach_date": "2016-12-08",
            "close_approach_date_full": "2016-Dec-08 18:31",
            "epoch_date_close_approach": 1481221860000,
            "relative_velocity": {
                "kilometers_per_second": "3.9594662944",
                "kilometers_per_hour": "14254.0786597136",
                "miles_per_hour": "8856.9301538648"
            },
            "miss_distance": {
                "astronomical": "1.4888752595",
                "lunar": "579.1724759455",
                "kilometers": "222732567.516897265",
                "miles": "138399599.780281657"
            },
            "orbiting_body": "Juptr"
        }
    ],
    "orbital_data": {
        "orbit_id": "8",
        "orbit_determination_date": "2017-04-06 08:39:13",
        "first_observation_date": "2014-08-22",
        "last_observation_date": "2014-10-19",
        "data_arc_in_days": 58,
        "observations_used": 19,
        "orbit_uncertainty": "6",
        "minimum_orbit_intersection": ".217053",
        "jupiter_tisserand_invariant": "3.094",
        "epoch_osculation": "2459000.5",
        "eccentricity": ".5560184159175232",
        "semi_major_axis": "2.744964197766103",
        "inclination": "6.938963656433071",
        "ascending_node_longitude": "165.7829002083187",
        "orbital_period": "1661.129356540862",
        "perihelion_distance": "1.218713552773879",
        "perihelion_argument": "194.2106940462177",
        "aphelion_distance": "4.271214842758327",
        "perihelion_time": "2458588.076855545624",
        "mean_anomaly": "89.38035524984898",
        "mean_motion": ".2167200276019831",
        "equinox": "J2000",
        "orbit_class": {
            "orbit_class_type": "AMO",
            "orbit_class_description": "Near-Earth asteroid orbits similar to that of 1221 Amor",
            "orbit_class_range": "1.017 AU < q (perihelion) < 1.3 AU"
        }
    },
    "is_sentry_object": false
}